[{"OBJECT_NAME":"STARLINK-31325","OBJECT_ID":"2024-044P","EPOCH":"2026-03-09T19:10:16.231872","MEAN_MOTION":15.27565632,"ECCENTRICITY":3.939e-5,"INCLINATION":42.9967,"RA_OF_ASC_NODE":106.2959,"ARG_OF_PERICENTER":343.054,"MEAN_ANOMALY":17.0298,"EPHEMERIS_TYPE":0,"CLASSIFICATION_TYPE":"U","NORAD_CAT_ID":59165,"ELEMENT_SET_NO":999,"REV_AT_EPOCH":11358,"BSTAR":-5.5766285e-5,"MEAN_MOTION_DOT":-1.795e-5,"MEAN_MOTION_DDOT":0},{"OBJECT_NAME":"COSMOS 546","OBJECT_ID":"1973-005A","EPOCH":"2026-03-09T21:40:39.247392","MEAN_MOTION":15.29707303,"ECCENTRICITY":0.00147738,"INCLINATION":50.6327,"RA_OF_ASC_NODE":289.914,"ARG_OF_PERICENTER":261.1516,"MEAN_ANOMALY":98.7778,"EPHEMERIS_TYPE":0,"CLASSIFICATION_TYPE":"U","NORAD_CAT_ID":6350,"ELEMENT_SET_NO":999,"REV_AT_EPOCH":92802,"BSTAR":9.142057e-5,"MEAN_MOTION_DOT":2.316e-5,"MEAN_MOTION_DDOT":0}]
